{
  "type": "FeatureCollection",
  "features": [
    {
      "type": "Feature",
      "geometry": { "type": "Point", "coordinates": [8.968792, 47.736091] },
      "properties": { "category": "train", "name": "Bahnhof Radolfzell (DB)" }
    },
    {
      "type": "Feature",
      "geometry": { "type": "Point", "coordinates": [8.983179, 47.736509] },
      "properties": { "category": "bus", "name": "Bushaltestelle \"Mettnau Stadion\"" }
    },
    {
      "type": "Feature",
      "geometry": { "type": "Point", "coordinates": [8.993656, 47.728866] },
      "properties": {
        "category": "bus",
        "name": "Bushaltestelle \"Mettnau Strandbad\" – NABU Pavillon"
      }
    },
    {
      "type": "Feature",
      "geometry": { "type": "Point", "coordinates": [8.988018, 47.733948] },
      "properties": { "category": "bus", "name": "Bushaltestelle \"Strandbadstrasse\"" }
    },
    {
      "type": "Feature",
      "geometry": { "type": "Point", "coordinates": [8.986199, 47.735636] },
      "properties": { "category": "bus", "name": "Bushaltestelle \"Strandbadstrasse\"" }
    },
    {
      "type": "Feature",
      "geometry": { "type": "Point", "coordinates": [9.015709, 47.721723] },
      "properties": { "category": "destination", "number": 2, "name": "Mettnauspitz" }
    },
    {
      "type": "Feature",
      "geometry": { "type": "Point", "coordinates": [9.002813, 47.7293] },
      "properties": { "category": "destination", "number": 1, "name": "Mettnauturm" }
    },
    {
      "type": "Feature",
      "geometry": { "type": "Point", "coordinates": [8.985604, 47.736035] },
      "properties": { "category": "parking", "name": "Parkplatz 1" }
    },
    {
      "type": "Feature",
      "geometry": { "type": "Point", "coordinates": [8.992739, 47.729813] },
      "properties": { "category": "parking", "name": "Parkplatz 2" }
    },
    {
      "type": "Feature",
      "geometry": { "type": "Point", "coordinates": [8.988876, 47.73345] },
      "properties": { "category": "parking", "name": "Parkplatz 3" }
    },
    {
      "type": "Feature",
      "geometry": { "type": "Point", "coordinates": [8.986044, 47.736264] },
      "properties": {
        "category": "destination",
        "number": 3,
        "name": "Plattform \"Haus Christine\""
      }
    },
    {
      "type": "Feature",
      "geometry": { "type": "Point", "coordinates": [8.9883433, 47.7310094] },
      "properties": { "category": "leisure", "name": "Mettnaupark" }
    },
    {
      "type": "Feature",
      "geometry": { "type": "Point", "coordinates": [8.999108, 47.725802] },
      "properties": {
        "category": "nature",
        "name": "Waldstück hinter der METTNAU Klinik"
      }
    },
    {
      "type": "Feature",
      "geometry": { "type": "Point", "coordinates": [8.9930082, 47.72896] },
      "properties": { "category": "leisure", "name": "Strandbad Mettnau" }
    },
    {
      "type": "Feature",
      "geometry": { "type": "Point", "coordinates": [9.0045686, 47.721815] },
      "properties": { "category": "leisure", "name": "Liebesinsel" }
    },
    {
      "type": "Feature",
      "geometry": {
        "type": "LineString",
        "coordinates": [
          [9.00336, 47.729178],
          [9.007952, 47.727504],
          [9.009948, 47.725642],
          [9.011536, 47.724978],
          [9.0119, 47.724285],
          [9.014132, 47.723159],
          [9.014819, 47.721932],
          [9.015484, 47.721744]
        ]
      },
      "properties": {
        "category": "closure",
        "name": "Weg gesperrt vom 15.4. bis 31.8.",
        "start": "04-15",
        "end": "08-31"
      }
    }
  ]
}
